

*******************************************************************************
Ephemeris / WWW_USER Thu May  4 19:16:49 2023 Pasadena, USA      / Horizons
*******************************************************************************
Target body name: Kepler (spacecraft) (-227)      {source: KEPLER_FINAL_56_traj}
Center body name: Sun (10)                        {source: DE441}
Center-site name: BODY CENTER
*******************************************************************************
Start time      : A.D. 2009-Mar-07 04:56:42.5760 TDB
Stop  time      : A.D. 2023-Jan-01 00:00:00.0000 TDB
Step-size       : 4320 minutes
*******************************************************************************
Center geodetic : 0.0, 0.0, 0.0                   {E-lon(deg),Lat(deg),Alt(km)}
Center cylindric: 0.0, 0.0, 0.0                   {E-lon(deg),Dxy(km),Dz(km)}
Center radii    : 696000.0, 696000.0, 696000.0 km {Equator_a, b, pole_c}
Output units    : KM-S
Calendar mode   : Mixed Julian/Gregorian
Output type     : GEOMETRIC cartesian states
Output format   : 1 (position only)
Reference frame : Ecliptic of J2000.0
*******************************************************************************
            JDTDB,            Calendar Date (TDB),                      X,                      Y,                      Z,
**************************************************************************************************************************
$$SOE
2456967.706048334, A.D. 2014-Nov-06 04:56:42.5760,  1.507728941528151E+08,  7.155306739332717E+06, -5.648264962058216E+05,
2456970.706048334, A.D. 2014-Nov-09 04:56:42.5760,  1.499369113360903E+08,  1.481740583834469E+07, -6.157890765502788E+05,
2456973.706048334, A.D. 2014-Nov-12 04:56:42.5760,  1.487101569370162E+08,  2.244086746662512E+07, -6.651466327296561E+05,
2456976.706048334, A.D. 2014-Nov-15 04:56:42.5760,  1.470937165555779E+08,  3.000550889225408E+07, -7.127577463390939E+05,
2456979.706048334, A.D. 2014-Nov-18 04:56:42.5760,  1.450897283467068E+08,  3.749107283275758E+07, -7.584970295670070E+05,
2456982.706048334, A.D. 2014-Nov-21 04:56:42.5760,  1.427014373635581E+08,  4.487731434066392E+07, -8.022119443064872E+05,
2456985.706048334, A.D. 2014-Nov-24 04:56:42.5760,  1.399331632373235E+08,  5.214404018636713E+07, -8.437975584953725E+05,
2456988.706048334, A.D. 2014-Nov-27 04:56:42.5760,  1.367903372270771E+08,  5.927117048686156E+07, -8.831169583658203E+05,
2456991.706048334, A.D. 2014-Nov-30 04:56:42.5760,  1.332795207774831E+08,  6.623884139689215E+07, -9.200793329014070E+05,
2456994.706048334, A.D. 2014-Dec-03 04:56:42.5760,  1.294083579239216E+08,  7.302740514943324E+07, -9.545545626352169E+05,
2456997.706048334, A.D. 2014-Dec-06 04:56:42.5760,  1.251856230269453E+08,  7.961755308442923E+07, -9.864312603111230E+05,
2457000.706048334, A.D. 2014-Dec-09 04:56:42.5760,  1.206211833606548E+08,  8.599036454616871E+07, -1.015621327067897E+06,
2457003.706048334, A.D. 2014-Dec-12 04:56:42.5760,  1.157259983399206E+08,  9.212736655326466E+07, -1.042040348509334E+06,
2457006.706048334, A.D. 2014-Dec-15 04:56:42.5760,  1.105121096421959E+08,  9.801064528011262E+07, -1.065570748678766E+06,
2457009.706048334, A.D. 2014-Dec-18 04:56:42.5760,  1.049925935761608E+08,  1.036228414086476E+08, -1.086152915603459E+06,
2457012.706048334, A.D. 2014-Dec-21 04:56:42.5760,  9.918156510401213E+07,  1.089473244807581E+08, -1.103731326045260E+06,
2457015.706048334, A.D. 2014-Dec-24 04:56:42.5760,  9.309411596021080E+07,  1.139681543611146E+08, -1.118233066982485E+06,
2457018.706048334, A.D. 2014-Dec-27 04:56:42.5760,  8.674629405430922E+07,  1.186702183871768E+08, -1.129586948477544E+06,
2457021.706048334, A.D. 2014-Dec-30 04:56:42.5760,  8.015504696905993E+07,  1.230392606752346E+08, -1.137764950222373E+06,
2457024.706048334, A.D. 2015-Jan-02 04:56:42.5760,  7.333818603275713E+07,  1.270619662554093E+08, -1.142762718953796E+06,
2457027.706048334, A.D. 2015-Jan-05 04:56:42.5760,  6.631431140910833E+07,  1.307259997204742E+08, -1.144529173552684E+06,
2457030.706048334, A.D. 2015-Jan-08 04:56:42.5760,  5.910277896851209E+07,  1.340200762625851E+08, -1.143035998049267E+06,
2457033.706048334, A.D. 2015-Jan-11 04:56:42.5760,  5.172361866096520E+07,  1.369340580164177E+08, -1.138308995361514E+06,
2457036.706048334, A.D. 2015-Jan-14 04:56:42.5760,  4.419746666443785E+07,  1.394588874372612E+08, -1.130348325868674E+06,
2457039.706048334, A.D. 2015-Jan-17 04:56:42.5760,  3.654549960308251E+07,  1.415867327285188E+08, -1.119199252063625E+06,
2457042.706048334, A.D. 2015-Jan-20 04:56:42.5760,  2.878935143699692E+07,  1.433109506583493E+08, -1.104839958903730E+06,
2457045.706048334, A.D. 2015-Jan-23 04:56:42.5760,  2.095103908388546E+07,  1.446262184596162E+08, -1.087332425864838E+06,
2457048.706048334, A.D. 2015-Jan-26 04:56:42.5760,  1.305288960089753E+07,  1.455284101897910E+08, -1.066718141986005E+06,
2457051.706048334, A.D. 2015-Jan-29 04:56:42.5760,  5.117455399915349E+06,  1.460147285654961E+08, -1.043065222678967E+06,
2457054.706048334, A.D. 2015-Feb-01 04:56:42.5760, -2.832635264049081E+06,  1.460838307028977E+08, -1.016395365226015E+06,
2457057.706048334, A.D. 2015-Feb-04 04:56:42.5760, -1.077464641602956E+07,  1.457355051731568E+08, -9.868192040118352E+05,
2457060.706048334, A.D. 2015-Feb-07 04:56:42.5760, -1.868585360860892E+07,  1.449708531190607E+08, -9.544568340138197E+05,
2457063.706048334, A.D. 2015-Feb-10 04:56:42.5760, -2.654376542632454E+07,  1.437924934218621E+08, -9.193692731640488E+05,
2457066.706048334, A.D. 2015-Feb-13 04:56:42.5760, -3.432602176802170E+07,  1.422041944282769E+08, -8.816375383744016E+05,
2457069.706048334, A.D. 2015-Feb-16 04:56:42.5760, -4.201055870211391E+07,  1.402110063757772E+08, -8.414062598572746E+05,
2457072.706048334, A.D. 2015-Feb-19 04:56:42.5760, -4.957569845389019E+07,  1.378192740230902E+08, -7.987830790954381E+05,
2457075.706048334, A.D. 2015-Feb-22 04:56:42.5760, -5.700020682052524E+07,  1.350365479771654E+08, -7.538947998451144E+05,
2457078.706048334, A.D. 2015-Feb-25 04:56:42.5760, -6.426338530745087E+07,  1.318715812122548E+08, -7.068721796706468E+05,
2457081.706048334, A.D. 2015-Feb-28 04:56:42.5760, -7.134512593076624E+07,  1.283342631687088E+08, -6.578483614771813E+05,
2457084.706048334, A.D. 2015-Mar-03 04:56:42.5760, -7.822600301488248E+07,  1.244355926534089E+08, -6.069783555392995E+05,
2457087.706048334, A.D. 2015-Mar-06 04:56:42.5760, -8.488730092911296E+07,  1.201876020509587E+08, -5.543993306949213E+05,
2457090.706048334, A.D. 2015-Mar-09 04:56:42.5760, -9.131110261576532E+07,  1.156033201166682E+08, -5.002772887915075E+05,
2457093.706048334, A.D. 2015-Mar-12 04:56:42.5760, -9.748033158158685E+07,  1.106967109373164E+08, -4.447557806364819E+05,
2457096.706048334, A.D. 2015-Mar-15 04:56:42.5760, -1.033787994368739E+08,  1.054826043382840E+08, -3.880070993147194E+05,
2457099.706048334, A.D. 2015-Mar-18 04:56:42.5760, -1.089912598310191E+08,  9.997664410485764E+07, -3.301844854480848E+05,
2457102.706048334, A.D. 2015-Mar-21 04:56:42.5760, -1.143034317363804E+08,  9.419521138896708E+07, -2.714495429784805E+05,
2457105.706048334, A.D. 2015-Mar-24 04:56:42.5760, -1.193020600143833E+08,  8.815536444280446E+07, -2.119729279571101E+05,
2457108.706048334, A.D. 2015-Mar-27 04:56:42.5760, -1.239748998840575E+08,  8.187476067817806E+07, -1.519169171294793E+05,
2457111.706048334, A.D. 2015-Mar-30 04:56:42.5760, -1.283107755990873E+08,  7.537159715467268E+07, -9.144728649141267E+04,
2457114.706048334, A.D. 2015-Apr-02 04:56:42.5760, -1.322995781905987E+08,  6.866453642719805E+07, -3.072954304543883E+04,
2457117.706048334, A.D. 2015-Apr-05 04:56:42.5760, -1.359322885250620E+08,  6.177264045736845E+07,  3.007222981879115E+04,
2457120.706048334, A.D. 2015-Apr-08 04:56:42.5760, -1.392009806357023E+08,  5.471530235283061E+07,  9.079553115368634E+04,
2457123.706048334, A.D. 2015-Apr-11 04:56:42.5760, -1.420988270952175E+08,  4.751217951216175E+07,  1.512795880804770E+05,
2457126.706048334, A.D. 2015-Apr-14 04:56:42.5760, -1.446200972108414E+08,  4.018312790720497E+07,  2.113656870661210E+05,
2457129.706048334, A.D. 2015-Apr-17 04:56:42.5760, -1.467601341767077E+08,  3.274814099637935E+07,  2.709155792673901E+05,
2457132.706048334, A.D. 2015-Apr-20 04:56:42.5760, -1.485154262579216E+08,  2.522727645068371E+07,  3.297322352053281E+05,
2457135.706048334, A.D. 2015-Apr-23 04:56:42.5760, -1.498834495330878E+08,  1.764061644027978E+07,  3.876820829992490E+05,
2457138.706048334, A.D. 2015-Apr-26 04:56:42.5760, -1.508627858050121E+08,  1.000818941865877E+07,  4.446148765842840E+05,
2457141.706048334, A.D. 2015-Apr-29 04:56:42.5760, -1.514530215056282E+08,  2.349935310341328E+06,  5.004020847439611E+05,
2457144.706048334, A.D. 2015-May-02 04:56:42.5760, -1.516547782381366E+08, -5.314362881245897E+06,  5.549049992949476E+05,
2457147.706048334, A.D. 2015-May-05 04:56:42.5760, -1.514696543643945E+08, -1.296511644687442E+07,  6.079929239879474E+05,
2457150.706048334, A.D. 2015-May-08 04:56:42.5760, -1.509002255947835E+08, -2.058299174655380E+07,  6.595529227757407E+05,
2457153.706048334, A.D. 2015-May-11 04:56:42.5760, -1.499499959185423E+08, -2.814893852408940E+07,  7.094501126502138E+05,
2457156.706048334, A.D. 2015-May-14 04:56:42.5760, -1.486233829041523E+08, -3.564424097015035E+07,  7.575677410770953E+05,
2457159.706048334, A.D. 2015-May-17 04:56:42.5760, -1.469256731445064E+08, -4.305055609192275E+07,  8.038013971636314E+05,
2457162.706048334, A.D. 2015-May-20 04:56:42.5760, -1.448630141571874E+08, -5.034994777971331E+07,  8.480280278810710E+05,
2457165.706048334, A.D. 2015-May-23 04:56:42.5760, -1.424423595173597E+08, -5.752492493994495E+07,  8.901845516112857E+05,
2457168.706048334, A.D. 2015-May-26 04:56:42.5760, -1.396714416057888E+08, -6.455845448251322E+07,  9.301544210177995E+05,
2457171.706048334, A.D. 2015-May-29 04:56:42.5760, -1.365587644065042E+08, -7.143403765406807E+07,  9.678426781953648E+05,
